ONEWEB-0116             
1 48046U 21025E   26197.30264099  .00000227  00000+0  58549-3 0  9994
2 48046  87.8988 314.4254 0001841 102.7508 257.3827 13.13470844257476
ONEWEB-0150             
1 48047U 21025F   26197.27894155 -.00000255  00000+0 -73380-3 0  9996
2 48047  87.8990 314.4275 0001915  94.0165 266.1183 13.13470433257362
ONEWEB-0107             
1 48048U 21025G   26197.28063314 -.00000291  00000+0 -83232-3 0  9990
2 48048  87.8988 314.4230 0002127  97.3524 262.7847 13.13472184257344
ONEWEB-0101             
1 48049U 21025H   26197.31957110  .00000365  00000+0  96326-3 0  9999
2 48049  87.8977 314.4283 0002085 102.5932 257.5430 13.13471034257327
ONEWEB-0113             
1 48050U 21025J   26196.87764524 -.00000011  00000+0 -65017-4 0  9990
2 48050  87.8984 314.4235 0001857  95.5526 264.5815 13.13890800257376
ONEWEB-0112             
1 48051U 21025K   26197.28571219 -.00000163  00000+0 -48034-3 0  9991
2 48051  87.8987 314.4207 0002221 102.8428 257.2949 13.13470402257412
ONEWEB-0156             
1 48052U 21025L   26196.83710377  .00000007  00000+0 -15762-4 0  9991
2 48052  87.8986 314.5194 0002010  95.9923 264.1435 13.13472413257338
ONEWEB-0161             
1 48053U 21025M   26197.26878169 -.00000109  00000+0 -33216-3 0  9991
2 48053  87.8988 314.4341 0002000  99.0525 261.0830 13.13468982257326
ONEWEB-0158             
1 48054U 21025N   26197.30434522  .00000226  00000+0  58528-3 0  9999
2 48054  87.8985 314.4249 0001835 108.6956 251.4373 13.13472293257450
ONEWEB-0157             
1 48055U 21025P   26197.25354477  .00000148  00000+0  36910-3 0  9998
2 48055  87.8984 314.4399 0002307  96.3284 263.8108 13.13470978257381
ONEWEB-0162             
1 48056U 21025Q   26197.30589965  .00000279  00000+0  72914-3 0  9996
2 48056  87.8981 314.4300 0001885  95.3373 264.7971 13.13469936257367
ONEWEB-0155             
1 48057U 21025R   26197.31280614  .00000349  00000+0  92200-3 0  9995
2 48057  87.8983 314.4248 0002035  97.9257 262.2103 13.13474078257507
ONEWEB-0149             
1 48058U 21025S   26197.25863157 -.00000003  00000+0 -44239-4 0  9997
2 48058  87.8987 314.4397 0001859  93.8478 266.2864 13.13469316257305
ONEWEB-0148             
1 48059U 21025T   26197.29756494  .00000088  00000+0  20667-3 0  9996
2 48059  87.8978 314.4372 0001921  82.7028 277.4319 13.13470242257430
ONEWEB-0160             
1 48060U 21025U   26197.31449028  .00000367  00000+0  97000-3 0  9998
2 48060  87.8977 314.4299 0001442 118.4736 241.6538 13.13469909257388
ONEWEB-0163             
1 48061U 21025V   26197.29925804  .00000128  00000+0  31643-3 0  9993
2 48061  87.8987 314.4296 0002230  97.0891 263.0492 13.13470141257508
